IRIDIUM 138             
1 43071U 17083B   26161.47915785  .00000113  00000+0  33329-4 0  9994
2 43071  86.3977 324.5152 0002389  88.0006 272.1463 14.34217940443172
IRIDIUM 116             
1 43072U 17083C   26161.51721250  .00000045  00000+0  90491-5 0  9990
2 43072  86.3959 324.7907 0001890  95.1571 264.9840 14.34217501443211
IRIDIUM 130             
1 43073U 17083D   26161.48549844 -.00000108  00000+0 -45525-4 0  9993
2 43073  86.3964 325.0787 0001845  88.6959 271.4448 14.34217448443155
IRIDIUM 151             
1 43074U 17083E   26161.52989791  .00000042  00000+0  78096-5 0  9993
2 43074  86.3962 324.8431 0002118  91.8560 268.2878 14.34217599443186
IRIDIUM 134             
1 43075U 17083F   26161.49818477 -.00000008  00000+0 -97814-5 0  9995
2 43075  86.3958 324.8642 0001980  89.5465 270.5957 14.34217515443148
IRIDIUM 137             
1 43076U 17083G   26161.51087005  .00000037  00000+0  60143-5 0  9999
2 43076  86.3963 324.9515 0002062 103.1197 257.0229 14.34217471443213
IRIDIUM 141             
1 43077U 17083H   26161.50452774  .00000044  00000+0  85117-5 0  9994
2 43077  86.3960 324.7854 0002205  90.7616 269.3832 14.34217694443214
IRIDIUM 153             
1 43078U 17083J   26161.31716941  .00000016  00000+0 -13902-5 0  9996
2 43078  86.3954 293.3439 0002213  90.7362 269.4088 14.34217580444292
IRIDIUM 131             
1 43079U 17083K   26161.49184252 -.00000017  00000+0 -13244-4 0  9990
2 43079  86.3961 324.9762 0002089  91.8463 268.2972 14.34217220443149
IRIDIUM 144             
1 43249U 18030A   26161.32351164 -.00000007  00000+0 -96037-5 0  9993
2 43249  86.3950 293.2704 0001952  95.3843 264.7575 14.34217295429156
IRIDIUM 149             
1 43250U 18030B   26161.32985461  .00000020  00000+0  14594-6 0  9990
2 43250  86.3951 293.2347 0002237  93.2197 266.9254 14.34217690429177
IRIDIUM 157             
1 43251U 18030C   26161.06980832  .00000024  00000+0  16424-5 0  9996
2 43251  86.3953 293.3964 0002186  94.1258 266.0188 14.34217640429113
IRIDIUM 140             
1 43252U 18030D   26161.29814116  .00000013  00000+0 -24997-5 0  9996
2 43252  86.3953 293.3138 0002009  92.7963 267.3462 14.34217555429202
IRIDIUM 145             
1 43253U 18030E   26160.72730625  .00000121  00000+0  35989-4 0  9997
2 43253  86.3953 293.5245 0001903  97.5750 262.5662 14.34218236429052
IRIDIUM 146             
1 43254U 18030F   26161.33619669  .00000017  00000+0 -11540-5 0  9993
2 43254  86.3953 293.2823 0001971  95.9733 264.1687 14.34217546429159
IRIDIUM 148             
1 43255U 18030G   26161.30448409 -.00000017  00000+0 -13235-4 0  9996
2 43255  86.3953 293.3386 0002087  97.2219 262.9214 14.34217208429188
IRIDIUM 142             
1 43256U 18030H   26161.34253803  .00000067  00000+0  16917-4 0  9996
2 43256  86.3951 293.2117 0002049  96.4404 263.7025 14.34218234429159
IRIDIUM 150             
1 43257U 18030J   26161.31082635  .00000033  00000+0  46262-5 0  9997
2 43257  86.3955 293.3412 0002115  92.6881 267.4557 14.34217809429174
IRIDIUM 143             
1 43258U 18030K   26161.29179897 -.00000140  00000+0 -57160-4 0  9991
2 43258  86.3954 293.4418 0001942  94.5918 265.5500 14.34216929429102
IRIDIUM 161             
1 43478U 18047C   26161.30524440  .00000277  00000+0  76386-4 0  9993
2 43478  86.4482  91.3484 0002553  87.2092 272.9401 14.43279135424141
IRIDIUM 152             
1 43479U 18047D   26161.33428573  .00000008  00000+0 -42616-5 0  9990
2 43479  86.3958  91.1974 0002249  83.6308 276.5144 14.34217528421502
IRIDIUM 147             
1 43480U 18047E   26161.27085949  .00000046  00000+0  94715-5 0  9999
2 43480  86.3959  91.2288 0002177  84.7172 275.4272 14.34217632421499
IRIDIUM 110             
1 43481U 18047F   26161.27720302  .00000005  00000+0 -53200-5 0  9999
2 43481  86.3958  91.3178 0002476  85.1103 275.0375 14.34217475421483
IRIDIUM 162             
1 43482U 18047G   26161.50694132  .00000278  00000+0  76631-4 0  9990
2 43482  86.4480  91.1552 0002337  83.1783 276.9683 14.43277893424167
IRIDIUM 160             
1 43569U 18061A   26161.43234363  .00000001  00000+0 -66964-5 0  9994
2 43569  86.3964  59.6213 0002160  86.6245 273.5198 14.34217476412406
IRIDIUM 166             
1 43570U 18061B   26161.45771397  .00000213  00000+0  68974-4 0  9997
2 43570  86.3968  59.5619 0002139  85.0096 275.1344 14.34217706412434
IRIDIUM 158             
1 43571U 18061C   26161.42600064  .00000080  00000+0  21392-4 0  9992
2 43571  86.3964  59.5848 0002247  82.3522 277.7929 14.34217722412399
IRIDIUM 165             
1 43572U 18061D   26161.45136818  .00000114  00000+0  33645-4 0  9999
2 43572  86.3969  59.6204 0002090  86.0465 274.0969 14.34216565412427
IRIDIUM 155             
1 43573U 18061E   26161.41331542  .00000022  00000+0  64237-6 0  9998
2 43573  86.3962  59.5056 0002163  82.6421 277.5020 14.34217758412386
IRIDIUM 154             
1 43574U 18061F   26161.46405618  .00000035  00000+0  54384-5 0  9995
2 43574  86.3968  59.6179 0002036  87.5080 272.6348 14.34217715412443
IRIDIUM 163             
1 43575U 18061G   26161.44501971  .00000087  00000+0  23995-4 0  9993
2 43575  86.3965  59.5414 0002319  83.8153 276.3307 14.34215845412411
