OBJECT_NAME,OBJECT_ID,EPOCH,MEAN_MOTION,ECCENTRICITY,INCLINATION,RA_OF_ASC_NODE,ARG_OF_PERICENTER,MEAN_ANOMALY,EPHEMERIS_TYPE,CLASSIFICATION_TYPE,NORAD_CAT_ID,ELEMENT_SET_NO,REV_AT_EPOCH,BSTAR,MEAN_MOTION_DOT,MEAN_MOTION_DDOT
IRIDIUM 138,2017-083B,2026-06-10T11:29:59.238240,14.34217940,.0002389,86.3977,324.5152,88.0006,272.1463,0,U,43071,999,44317,.33329E-4,.113E-5,0
IRIDIUM 116,2017-083C,2026-06-10T12:24:47.160000,14.34217501,.000189,86.3959,324.7907,95.1571,264.9840,0,U,43072,999,44321,.90491E-5,.45E-6,0
IRIDIUM 130,2017-083D,2026-06-10T11:39:07.065216,14.34217448,.0001845,86.3964,325.0787,88.6959,271.4448,0,U,43073,999,44315,-.45525E-4,-.108E-5,0
IRIDIUM 151,2017-083E,2026-06-10T12:43:03.179424,14.34217599,.0002118,86.3962,324.8431,91.8560,268.2878,0,U,43074,999,44318,.78096E-5,.42E-6,0
IRIDIUM 134,2017-083F,2026-06-10T11:57:23.164128,14.34217515,.000198,86.3958,324.8642,89.5465,270.5957,0,U,43075,999,44314,-.97814E-5,-.8E-7,0
IRIDIUM 137,2017-083G,2026-06-10T12:15:39.172320,14.34217471,.0002062,86.3963,324.9515,103.1197,257.0229,0,U,43076,999,44321,.60143E-5,.37E-6,0
IRIDIUM 141,2017-083H,2026-06-10T12:06:31.196736,14.34217694,.0002205,86.3960,324.7854,90.7616,269.3832,0,U,43077,999,44321,.85117E-5,.44E-6,0
IRIDIUM 153,2017-083J,2026-06-10T07:36:43.437024,14.34217580,.0002213,86.3954,293.3439,90.7362,269.4088,0,U,43078,999,44429,-.13902E-5,.16E-6,0
IRIDIUM 131,2017-083K,2026-06-10T11:48:15.193728,14.34217220,.0002089,86.3961,324.9762,91.8463,268.2972,0,U,43079,999,44314,-.13244E-4,-.17E-6,0
IRIDIUM 144,2018-030A,2026-06-10T07:45:51.405696,14.34217295,.0001952,86.3950,293.2704,95.3843,264.7575,0,U,43249,999,42915,-.96037E-5,-.7E-7,0
IRIDIUM 149,2018-030B,2026-06-10T07:54:59.438304,14.34217690,.0002237,86.3951,293.2347,93.2197,266.9254,0,U,43250,999,42917,.14594E-6,.2E-6,0
IRIDIUM 157,2018-030C,2026-06-10T01:40:31.438848,14.34217640,.00021869,86.3953,293.3964,94.1258,266.0188,0,U,43251,999,42911,.1642422E-5,.24E-6,0
IRIDIUM 140,2018-030D,2026-06-10T07:09:19.396224,14.34217555,.0002009,86.3953,293.3138,92.7963,267.3462,0,U,43252,999,42920,-.24997E-5,.13E-6,0
IRIDIUM 145,2018-030E,2026-06-09T17:27:19.260000,14.34218236,.0001903,86.3953,293.5245,97.5750,262.5662,0,U,43253,999,42905,.35989E-4,.121E-5,0
IRIDIUM 146,2018-030F,2026-06-10T08:04:07.394016,14.34217546,.0001971,86.3953,293.2823,95.9733,264.1687,0,U,43254,999,42915,-.1154E-5,.17E-6,0
IRIDIUM 148,2018-030G,2026-06-10T07:18:27.425376,14.34217208,.0002087,86.3953,293.3386,97.2219,262.9214,0,U,43255,999,42918,-.13235E-4,-.17E-6,0
IRIDIUM 142,2018-030H,2026-06-10T08:13:15.285792,14.34218234,.0002049,86.3951,293.2117,96.4404,263.7025,0,U,43256,999,42915,.16917E-4,.67E-6,0
IRIDIUM 150,2018-030J,2026-06-10T07:27:35.396640,14.34217809,.0002115,86.3955,293.3412,92.6881,267.4557,0,U,43257,999,42917,.46262E-5,.33E-6,0
IRIDIUM 143,2018-030K,2026-06-10T07:00:11.431008,14.34216929,.0001942,86.3954,293.4418,94.5918,265.5500,0,U,43258,999,42910,-.5716E-4,-.14E-5,0
IRIDIUM 161,2018-047C,2026-06-10T07:19:33.116160,14.43279135,.0002553,86.4482,91.3484,87.2092,272.9401,0,U,43478,999,42414,.76386E-4,.277E-5,0
IRIDIUM 152,2018-047D,2026-06-10T08:01:22.287072,14.34217528,.0002249,86.3958,91.1974,83.6308,276.5144,0,U,43479,999,42150,-.42616E-5,.8E-7,0
IRIDIUM 147,2018-047E,2026-06-10T06:30:02.259936,14.34217632,.0002177,86.3959,91.2288,84.7172,275.4272,0,U,43480,999,42149,.94715E-5,.46E-6,0
IRIDIUM 110,2018-047F,2026-06-10T06:39:10.340928,14.34217475,.0002476,86.3958,91.3178,85.1103,275.0375,0,U,43481,999,42148,-.532E-5,.5E-7,0
IRIDIUM 162,2018-047G,2026-06-10T12:09:59.730048,14.43277893,.0002337,86.4480,91.1552,83.1783,276.9683,0,U,43482,999,42416,.76631E-4,.278E-5,0
IRIDIUM 160,2018-061A,2026-06-10T10:22:34.489632,14.34217476,.000216,86.3964,59.6213,86.6245,273.5198,0,U,43569,999,41240,-.66964E-5,.1E-7,0
IRIDIUM 166,2018-061B,2026-06-10T10:59:06.487008,14.34217706,.0002139,86.3968,59.5619,85.0096,275.1344,0,U,43570,999,41243,.68974E-4,.213E-5,0
IRIDIUM 158,2018-061C,2026-06-10T10:13:26.455296,14.34217722,.0002247,86.3964,59.5848,82.3522,277.7929,0,U,43571,999,41239,.21392E-4,.8E-6,0
IRIDIUM 165,2018-061D,2026-06-10T10:49:58.210752,14.34216565,.000209,86.3969,59.6204,86.0465,274.0969,0,U,43572,999,41242,.33645E-4,.114E-5,0
IRIDIUM 155,2018-061E,2026-06-10T09:55:10.452288,14.34217758,.0002163,86.3962,59.5056,82.6421,277.5020,0,U,43573,999,41238,.64237E-6,.22E-6,0
IRIDIUM 154,2018-061F,2026-06-10T11:08:14.453952,14.34217715,.0002036,86.3968,59.6179,87.5080,272.6348,0,U,43574,999,41244,.54384E-5,.35E-6,0
IRIDIUM 163,2018-061G,2026-06-10T10:40:49.702944,14.34215845,.0002319,86.3965,59.5414,83.8153,276.3307,0,U,43575,999,41241,.23995E-4,.87E-6,0
